STARLINK-30124          
1 56690U 23067C   25130.27168007  .00000595  00000+0  59108-4 0  9991
2 56690  43.0030 123.5152 0001121 281.0932  78.9784 15.02536953110012
STARLINK-30036          
1 56692U 23067E   25130.66389148  .00000305  00000+0  37664-4 0  9999
2 56692  43.0035 121.3166 0001299 268.6650  91.4043 15.02536881109223
STARLINK-30067          
1 56693U 23067F   25130.65723452 -.00000700  00000+0 -36785-4 0  9993
2 56693  43.0029 121.2651 0001204 268.0512  92.0192 15.02535817109222
STARLINK-30126          
1 56694U 23067G   25130.46112694  .00000242  00000+0  32958-4 0  9990
2 56694  43.0030 122.3746 0001199 270.3564  89.7141 15.02537196110049
STARLINK-30121          
1 56695U 23067H   25130.25503124 -.00000283  00000+0 -58513-5 0  9993
2 56695  43.0032 123.3878 0001317 272.7766  87.2926 15.02536217110015
STARLINK-30130          
1 56697U 23067K   25130.16191835  .00000612  00000+0  60373-4 0  9997
2 56697  43.0029 123.5656 0001346 282.0910  77.9781 15.02537142109747
STARLINK-30068          
1 56698U 23067L   25130.63417500 -.00001976  00000+0 -13123-3 0  9996
2 56698  43.0019 108.1025 0001308 267.5200  92.5493 15.02540684109371
STARLINK-30127          
1 56699U 23067M   25130.25169907 -.00001118  00000+0 -67703-4 0  9992
2 56699  43.0024 123.3818 0001455 269.9780  90.0895 15.02532268110010
STARLINK-30053          
1 56700U 23067N   25130.24837369  .00000822  00000+0  75925-4 0  9992
2 56700  43.0022 123.3562 0001086 270.1303  89.9415 15.02538549110015
STARLINK-30125          
1 56701U 23067P   25130.24504481  .00000807  00000+0  74784-4 0  9994
2 56701  43.0027 123.3328 0001136 271.0268  89.0444 15.02539132110019
STARLINK-30117          
1 56702U 23067Q   25130.68053328 -.00000022  00000+0  13420-4 0  9992
2 56702  43.0027 121.3741 0001009 274.9651  85.1076 15.02532161109228
STARLINK-30132          
1 56703U 23067R   25130.24171329  .00000472  00000+0  49985-4 0  9990
2 56703  43.0029 123.3009 0001140 274.3162  85.7550 15.02536315109168
STARLINK-30066          
1 56704U 23067S   25130.28821244 -.00000225  00000+0 -15942-5 0  9998
2 56704  43.0040 122.7780 0001226 279.2150  80.8554 15.02538936110025
STARLINK-30080          
1 56705U 23067T   25130.63086276  .00001029  00000+0  91231-4 0  9991
2 56705  43.0030 108.1387 0001109 276.0641  84.0075 15.02535182109376
