[
  {
    "OBJECT_NAME": "STARLINK-30124",
    "OBJECT_ID": "2023-067C",
    "EPOCH": "2025-05-10T06:31:13.158048",
    "MEAN_MOTION": 15.02536953,
    "ECCENTRICITY": 0.0001121,
    "INCLINATION": 43.003,
    "RA_OF_ASC_NODE": 123.5152,
    "ARG_OF_PERICENTER": 281.0932,
    "MEAN_ANOMALY": 78.9784,
    "EPHEMERIS_TYPE": 0,
    "CLASSIFICATION_TYPE": "U",
    "NORAD_CAT_ID": 56690,
    "ELEMENT_SET_NO": 999,
    "REV_AT_EPOCH": 11001,
    "BSTAR": 5.9108e-05,
    "MEAN_MOTION_DOT": 5.95e-06,
    "MEAN_MOTION_DDOT": 0
  },
  {
    "OBJECT_NAME": "STARLINK-30036",
    "OBJECT_ID": "2023-067E",
    "EPOCH": "2025-05-10T15:56:00.223872",
    "MEAN_MOTION": 15.02536881,
    "ECCENTRICITY": 0.0001299,
    "INCLINATION": 43.0035,
    "RA_OF_ASC_NODE": 121.3166,
    "ARG_OF_PERICENTER": 268.665,
    "MEAN_ANOMALY": 91.4043,
    "EPHEMERIS_TYPE": 0,
    "CLASSIFICATION_TYPE": "U",
    "NORAD_CAT_ID": 56692,
    "ELEMENT_SET_NO": 999,
    "REV_AT_EPOCH": 10922,
    "BSTAR": 3.7664e-05,
    "MEAN_MOTION_DOT": 3.05e-06,
    "MEAN_MOTION_DDOT": 0
  },
  {
    "OBJECT_NAME": "STARLINK-30067",
    "OBJECT_ID": "2023-067F",
    "EPOCH": "2025-05-10T15:46:25.062528",
    "MEAN_MOTION": 15.02535817,
    "ECCENTRICITY": 0.0001204,
    "INCLINATION": 43.0029,
    "RA_OF_ASC_NODE": 121.2651,
    "ARG_OF_PERICENTER": 268.0512,
    "MEAN_ANOMALY": 92.0192,
    "EPHEMERIS_TYPE": 0,
    "CLASSIFICATION_TYPE": "U",
    "NORAD_CAT_ID": 56693,
    "ELEMENT_SET_NO": 999,
    "REV_AT_EPOCH": 10922,
    "BSTAR": -3.6785e-05,
    "MEAN_MOTION_DOT": -7e-06,
    "MEAN_MOTION_DDOT": 0
  },
  {
    "OBJECT_NAME": "STARLINK-30126",
    "OBJECT_ID": "2023-067G",
    "EPOCH": "2025-05-10T11:04:01.367616",
    "MEAN_MOTION": 15.02537196,
    "ECCENTRICITY": 0.0001199,
    "INCLINATION": 43.003,
    "RA_OF_ASC_NODE": 122.3746,
    "ARG_OF_PERICENTER": 270.3564,
    "MEAN_ANOMALY": 89.7141,
    "EPHEMERIS_TYPE": 0,
    "CLASSIFICATION_TYPE": "U",
    "NORAD_CAT_ID": 56694,
    "ELEMENT_SET_NO": 999,
    "REV_AT_EPOCH": 11004,
    "BSTAR": 3.2958e-05,
    "MEAN_MOTION_DOT": 2.42e-06,
    "MEAN_MOTION_DDOT": 0
  },
  {
    "OBJECT_NAME": "STARLINK-30121",
    "OBJECT_ID": "2023-067H",
    "EPOCH": "2025-05-10T06:07:14.699136",
    "MEAN_MOTION": 15.02536217,
    "ECCENTRICITY": 0.0001317,
    "INCLINATION": 43.0032,
    "RA_OF_ASC_NODE": 123.3878,
    "ARG_OF_PERICENTER": 272.7766,
    "MEAN_ANOMALY": 87.2926,
    "EPHEMERIS_TYPE": 0,
    "CLASSIFICATION_TYPE": "U",
    "NORAD_CAT_ID": 56695,
    "ELEMENT_SET_NO": 999,
    "REV_AT_EPOCH": 11001,
    "BSTAR": -5.8513e-06,
    "MEAN_MOTION_DOT": -2.83e-06,
    "MEAN_MOTION_DDOT": 0
  },
  {
    "OBJECT_NAME": "STARLINK-30130",
    "OBJECT_ID": "2023-067K",
    "EPOCH": "2025-05-10T03:53:09.745440",
    "MEAN_MOTION": 15.02537142,
    "ECCENTRICITY": 0.0001346,
    "INCLINATION": 43.0029,
    "RA_OF_ASC_NODE": 123.5656,
    "ARG_OF_PERICENTER": 282.091,
    "MEAN_ANOMALY": 77.9781,
    "EPHEMERIS_TYPE": 0,
    "CLASSIFICATION_TYPE": "U",
    "NORAD_CAT_ID": 56697,
    "ELEMENT_SET_NO": 999,
    "REV_AT_EPOCH": 10974,
    "BSTAR": 6.0373e-05,
    "MEAN_MOTION_DOT": 6.12e-06,
    "MEAN_MOTION_DDOT": 0
  },
  {
    "OBJECT_NAME": "STARLINK-30068",
    "OBJECT_ID": "2023-067L",
    "EPOCH": "2025-05-10T15:13:12.720000",
    "MEAN_MOTION": 15.02540684,
    "ECCENTRICITY": 0.0001308,
    "INCLINATION": 43.0019,
    "RA_OF_ASC_NODE": 108.1025,
    "ARG_OF_PERICENTER": 267.52,
    "MEAN_ANOMALY": 92.5493,
    "EPHEMERIS_TYPE": 0,
    "CLASSIFICATION_TYPE": "U",
    "NORAD_CAT_ID": 56698,
    "ELEMENT_SET_NO": 999,
    "REV_AT_EPOCH": 10937,
    "BSTAR": -0.00013123,
    "MEAN_MOTION_DOT": -1.976e-05,
    "MEAN_MOTION_DDOT": 0
  },
  {
    "OBJECT_NAME": "STARLINK-30127",
    "OBJECT_ID": "2023-067M",
    "EPOCH": "2025-05-10T06:02:26.799648",
    "MEAN_MOTION": 15.02532268,
    "ECCENTRICITY": 0.0001455,
    "INCLINATION": 43.0024,
    "RA_OF_ASC_NODE": 123.3818,
    "ARG_OF_PERICENTER": 269.978,
    "MEAN_ANOMALY": 90.0895,
    "EPHEMERIS_TYPE": 0,
    "CLASSIFICATION_TYPE": "U",
    "NORAD_CAT_ID": 56699,
    "ELEMENT_SET_NO": 999,
    "REV_AT_EPOCH": 11001,
    "BSTAR": -6.7703e-05,
    "MEAN_MOTION_DOT": -1.118e-05,
    "MEAN_MOTION_DDOT": 0
  },
  {
    "OBJECT_NAME": "STARLINK-30053",
    "OBJECT_ID": "2023-067N",
    "EPOCH": "2025-05-10T05:57:39.486816",
    "MEAN_MOTION": 15.02538549,
    "ECCENTRICITY": 0.0001086,
    "INCLINATION": 43.0022,
    "RA_OF_ASC_NODE": 123.3562,
    "ARG_OF_PERICENTER": 270.1303,
    "MEAN_ANOMALY": 89.9415,
    "EPHEMERIS_TYPE": 0,
    "CLASSIFICATION_TYPE": "U",
    "NORAD_CAT_ID": 56700,
    "ELEMENT_SET_NO": 999,
    "REV_AT_EPOCH": 11001,
    "BSTAR": 7.5925e-05,
    "MEAN_MOTION_DOT": 8.22e-06,
    "MEAN_MOTION_DDOT": 0
  },
  {
    "OBJECT_NAME": "STARLINK-30125",
    "OBJECT_ID": "2023-067P",
    "EPOCH": "2025-05-10T05:52:51.871584",
    "MEAN_MOTION": 15.02539132,
    "ECCENTRICITY": 0.0001136,
    "INCLINATION": 43.0027,
    "RA_OF_ASC_NODE": 123.3328,
    "ARG_OF_PERICENTER": 271.0268,
    "MEAN_ANOMALY": 89.0444,
    "EPHEMERIS_TYPE": 0,
    "CLASSIFICATION_TYPE": "U",
    "NORAD_CAT_ID": 56701,
    "ELEMENT_SET_NO": 999,
    "REV_AT_EPOCH": 11001,
    "BSTAR": 7.4784e-05,
    "MEAN_MOTION_DOT": 8.07e-06,
    "MEAN_MOTION_DDOT": 0
  },
  {
    "OBJECT_NAME": "STARLINK-30117",
    "OBJECT_ID": "2023-067Q",
    "EPOCH": "2025-05-10T16:19:58.075392",
    "MEAN_MOTION": 15.02532161,
    "ECCENTRICITY": 0.0001009,
    "INCLINATION": 43.0027,
    "RA_OF_ASC_NODE": 121.3741,
    "ARG_OF_PERICENTER": 274.9651,
    "MEAN_ANOMALY": 85.1076,
    "EPHEMERIS_TYPE": 0,
    "CLASSIFICATION_TYPE": "U",
    "NORAD_CAT_ID": 56702,
    "ELEMENT_SET_NO": 999,
    "REV_AT_EPOCH": 10922,
    "BSTAR": 1.342e-05,
    "MEAN_MOTION_DOT": -2.2e-07,
    "MEAN_MOTION_DDOT": 0
  },
  {
    "OBJECT_NAME": "STARLINK-30132",
    "OBJECT_ID": "2023-067R",
    "EPOCH": "2025-05-10T05:48:04.028256",
    "MEAN_MOTION": 15.02536315,
    "ECCENTRICITY": 0.000114,
    "INCLINATION": 43.0029,
    "RA_OF_ASC_NODE": 123.3009,
    "ARG_OF_PERICENTER": 274.3162,
    "MEAN_ANOMALY": 85.755,
    "EPHEMERIS_TYPE": 0,
    "CLASSIFICATION_TYPE": "U",
    "NORAD_CAT_ID": 56703,
    "ELEMENT_SET_NO": 999,
    "REV_AT_EPOCH": 10916,
    "BSTAR": 4.9985e-05,
    "MEAN_MOTION_DOT": 4.72e-06,
    "MEAN_MOTION_DDOT": 0
  },
  {
    "OBJECT_NAME": "STARLINK-30066",
    "OBJECT_ID": "2023-067S",
    "EPOCH": "2025-05-10T06:55:01.554816",
    "MEAN_MOTION": 15.02538936,
    "ECCENTRICITY": 0.0001226,
    "INCLINATION": 43.004,
    "RA_OF_ASC_NODE": 122.778,
    "ARG_OF_PERICENTER": 279.215,
    "MEAN_ANOMALY": 80.8554,
    "EPHEMERIS_TYPE": 0,
    "CLASSIFICATION_TYPE": "U",
    "NORAD_CAT_ID": 56704,
    "ELEMENT_SET_NO": 999,
    "REV_AT_EPOCH": 11002,
    "BSTAR": -1.5942e-06,
    "MEAN_MOTION_DOT": -2.25e-06,
    "MEAN_MOTION_DDOT": 0
  },
  {
    "OBJECT_NAME": "STARLINK-30080",
    "OBJECT_ID": "2023-067T",
    "EPOCH": "2025-05-10T15:08:26.542464",
    "MEAN_MOTION": 15.02535182,
    "ECCENTRICITY": 0.0001109,
    "INCLINATION": 43.003,
    "RA_OF_ASC_NODE": 108.1387,
    "ARG_OF_PERICENTER": 276.0641,
    "MEAN_ANOMALY": 84.0075,
    "EPHEMERIS_TYPE": 0,
    "CLASSIFICATION_TYPE": "U",
    "NORAD_CAT_ID": 56705,
    "ELEMENT_SET_NO": 999,
    "REV_AT_EPOCH": 10937,
    "BSTAR": 9.1231e-05,
    "MEAN_MOTION_DOT": 1.029e-05,
    "MEAN_MOTION_DDOT": 0
  }
]